OBJECT_NAME,OBJECT_ID,EPOCH,MEAN_MOTION,ECCENTRICITY,INCLINATION,RA_OF_ASC_NODE,ARG_OF_PERICENTER,MEAN_ANOMALY,EPHEMERIS_TYPE,CLASSIFICATION_TYPE,NORAD_CAT_ID,ELEMENT_SET_NO,REV_AT_EPOCH,BSTAR,MEAN_MOTION_DOT,MEAN_MOTION_DDOT
QIANFAN-147,2026-108C,2026-06-05T22:51:12.303072,14.17033036,.00155135,89.0119,23.4682,146.1608,214.0573,0,U,69106,999,275,.1510851E-3,.318E-5,0
QIANFAN-148,2026-108D,2026-06-05T22:42:52.533504,14.17402156,.00160091,89.0120,23.4676,151.1227,209.0851,0,U,69107,999,275,.15038662E-3,.319E-5,0
QIANFAN-149,2026-108E,2026-06-05T22:39:21.884256,14.17856750,.00156566,89.0122,23.4677,150.3784,209.8295,0,U,69108,999,275,.15659531E-3,.334E-5,0
QIANFAN-150,2026-108F,2026-06-05T22:27:47.927232,14.18305196,.0015692,89.0123,23.4666,152.1166,208.0868,0,U,69109,999,275,.15037126E-3,.324E-5,0
QIANFAN-151,2026-108G,2026-06-05T22:20:14.945856,14.18800853,.00158087,89.0122,23.4657,150.6762,209.5318,0,U,69110,999,275,.1591414E-3,.345E-5,0
QIANFAN-152,2026-108H,2026-06-05T22:14:01.195872,14.19418130,.00150262,89.0121,23.4648,150.5849,209.6190,0,U,69111,999,275,.15155155E-3,.333E-5,0
QIANFAN-153,2026-108J,2026-06-05T22:06:55.375200,14.19641364,.00162233,89.0119,23.4638,150.5704,209.6403,0,U,69112,999,275,.15542161E-3,.343E-5,0
QIANFAN-154,2026-108K,2026-06-05T21:57:48.445056,14.20189437,.00158929,89.0123,23.4635,148.4928,211.7217,0,U,69113,999,275,.15596891E-3,.348E-5,0
QIANFAN-155,2026-108L,2026-06-05T22:01:17.362848,14.19534828,.00166029,89.0123,23.4639,148.8346,211.3832,0,U,69114,999,275,.16278208E-3,.358E-5,0
QIANFAN-156,2026-108M,2026-06-05T21:51:48.964032,14.20957248,.00162378,89.0126,23.4634,150.0777,210.1345,0,U,69115,999,275,.15375735E-3,.348E-5,0
QIANFAN-157,2026-108N,2026-06-05T22:59:18.945024,14.24907858,.00165407,89.0123,23.4514,154.7668,205.4337,0,U,69116,999,276,.16147076E-3,.392E-5,0
QIANFAN-158,2026-108P,2026-06-05T21:43:33.998304,14.21846659,.00161673,89.0122,23.4618,151.4276,208.7804,0,U,69117,999,275,.15437961E-3,.355E-5,0
QIANFAN-159,2026-108Q,2026-06-05T21:38:15.692928,14.22293000,.00158663,89.0121,23.4611,151.2824,208.9244,0,U,69118,999,275,.15744616E-3,.364E-5,0
QIANFAN-160,2026-108R,2026-06-05T21:34:01.152480,14.22717041,.00155913,89.0124,23.4611,151.0939,209.1119,0,U,69119,999,275,.3733095E-4,.98E-6,0
QIANFAN-161,2026-108S,2026-06-05T21:29:28.502592,14.23188325,.00155966,89.0123,23.4605,151.8475,208.3564,0,U,69120,999,275,.15341617E-3,.361E-5,0
QIANFAN-162,2026-108T,2026-06-05T21:26:52.975680,14.23623750,.00154326,89.0122,23.4602,153.0334,207.1663,0,U,69121,999,275,.1551304E-3,.368E-5,0
SMILE,2026-109A,2026-05-24T15:40:35.120928,14.57062785,.00091232,70.0007,229.2745,259.5159,100.4951,0,U,69123,999,80,-.42378883E-3,-.1976E-4,0
STARLINK-37726,2026-110A,2026-06-06T06:00:02.000160,15.49307497,.00016359,97.2856,353.3674,84.7762,261.4649,0,U,69124,999,389,-.44545941E-2,-.236237E-2,0
STARLINK-37722,2026-110B,2026-06-06T06:00:02.000160,15.66518361,.00016567,97.2848,353.4854,96.7457,167.7699,0,U,69125,999,395,-.28269292E-1,-.2559528E-1,0
STARLINK-37715,2026-110C,2026-06-05T13:21:26.035776,15.80855594,.00018077,97.2837,352.7856,139.4930,220.6473,0,U,69126,999,380,.70625637E-3,.137545E-2,0
STARLINK-37706,2026-110D,2026-06-06T06:00:02.000160,15.76853172,.00016579,97.2839,353.5199,94.5194,248.5281,0,U,69127,999,390,-.18452165E-1,-.2528535E-1,0
STARLINK-37723,2026-110E,2026-06-06T03:00:18.023904,15.78906501,.00019731,97.2837,353.3898,322.4784,37.6345,0,U,69128,999,389,-.18698131E-2,-.316972E-2,0
STARLINK-37720,2026-110F,2026-06-06T06:00:02.000160,15.49131141,.00021557,97.2852,353.3891,92.4643,302.8079,0,U,69129,999,390,.80790743E-3,.44008E-3,0
STARLINK-37533,2026-110G,2026-06-05T20:51:48.022848,15.80753113,.00016063,97.2839,353.1262,86.5092,273.6360,0,U,69130,999,385,-.28200148E-3,-.53675E-3,0
STARLINK-37530,2026-110H,2026-06-05T20:50:42.368352,15.80958616,.00016051,97.2839,353.1276,85.1519,274.9933,0,U,69131,999,385,.14099019E-2,.280611E-2,0
STARLINK-37660,2026-110J,2026-06-06T06:00:02.000160,15.67831027,.00016171,97.2842,353.5010,90.7401,210.9606,0,U,69132,999,390,-.20320239E-1,-.1968633E-1,0
STARLINK-37633,2026-110K,2026-06-06T06:00:02.000160,15.68123091,.00015596,97.2842,353.5072,92.1340,223.5436,0,U,69133,999,390,-.12463874E-1,-.1242196E-1,0
STARLINK-37361,2026-110L,2026-06-05T17:45:08.850528,15.80898683,.00013057,97.2844,352.9962,72.2244,287.9167,0,U,69134,999,383,.91664801E-3,.179782E-2,0
STARLINK-37372,2026-110M,2026-06-06T06:00:02.000160,15.70853420,.00015413,97.2843,353.5224,87.6921,264.1530,0,U,69135,999,390,-.24529251E-1,-.2643461E-1,0
